ORBCOMM FM37            
1 33064U 08031E   25294.81506985  .00003093  00000+0  42924-3 0  9990
2 33064  48.4375 101.4392 0005663 204.4342 291.3851 14.80284805932809
ORBCOMM FM40            
1 33065U 08031F   25294.79998940  .00004526  00000+0  58108-3 0  9997
2 33065  48.4398  83.3709 0006899 218.5962 283.5296 14.82696532932948
VESSELSAT 1             
1 37840U 11058C   25294.37039694  .00000445  00000+0  98122-4 0  9998
2 37840  19.9627  50.3328 0013671 134.1106 226.0425 14.11381838724151
ORBCOMM FM109           
1 40086U 14040A   25294.80050770  .00001034  00000+0  25738-3 0  9991
2 40086  47.0018 138.2327 0001852 214.9874 145.0890 14.58402395599547
ORBCOMM FM107           
1 40087U 14040B   25294.75403990  .00001106  00000+0  27219-3 0  9998
2 40087  47.0035 139.3642 0000906 162.4793 197.6124 14.58477575599618
ORBCOMM FM106           
1 40088U 14040C   25294.34690925  .00002198  00000+0  39481-3 0  9996
2 40088  47.0599 313.2456 0017652 292.2817  67.6202 14.69809285602038
ORBCOMM FM111           
1 40089U 14040D   25294.83315922  .00004527  00000+0  51759-3 0  9992
2 40089  46.9985 143.7839 0028698  79.9403 280.4730 14.87191491609075
ORBCOMM FM104           
1 40090U 14040E   25294.67642644  .00001179  00000+0  29781-3 0  9990
2 40090  47.0042 174.8699 0015943  61.6832 298.5659 14.56869494599063
